[
  {
    "name": "ONEWEB-0616",
    "noradId": "55157",
    "line1": "1 55157U 23004T   26204.36457679  .00000020  00000+0  18266-4 0  9991",
    "line2": "2 55157  87.9156 358.6719 0002105 119.9365 240.1976 13.17647907172466"
  },
  {
    "name": "ONEWEB-0617",
    "noradId": "55158",
    "line1": "1 55158U 23004U   26204.00278134  .00000512  00000+0  14080-2 0  9994",
    "line2": "2 55158  87.8897  13.9372 0001756  83.0717 277.0611 13.11418155170555"
  },
  {
    "name": "ONEWEB-0618",
    "noradId": "55159",
    "line1": "1 55159U 23004V   26204.36193983  .00006023  00000+0  33444-3 0  9991",
    "line2": "2 55159  86.9110 162.9463 0013726 147.5042 212.7046 15.13462078187730"
  },
  {
    "name": "ONEWEB-0619",
    "noradId": "55160",
    "line1": "1 55160U 23004W   26204.39663844  .00000031  00000+0  45479-4 0  9999",
    "line2": "2 55160  87.9163 358.6493 0001433  97.6583 262.4712 13.17647742172365"
  },
  {
    "name": "ONEWEB-0620",
    "noradId": "55161",
    "line1": "1 55161U 23004X   26204.45548311  .00000576  00000+0  15888-2 0  9991",
    "line2": "2 55161  87.8887  13.8539 0002057  88.8700 271.2664 13.11417941170581"
  },
  {
    "name": "ONEWEB-0621",
    "noradId": "55162",
    "line1": "1 55162U 23004Y   26204.40631717 -.00000167  00000+0 -50830-3 0  9995",
    "line2": "2 55162  87.8892  13.8559 0001613  86.8875 273.2438 13.11414180170558"
  },
  {
    "name": "ONEWEB-0622",
    "noradId": "55163",
    "line1": "1 55163U 23004Z   26204.48769671 -.00000258  00000+0 -76436-3 0  9996",
    "line2": "2 55163  87.8896  13.8429 0001898  69.4869 290.6463 13.11414510170552"
  },
  {
    "name": "ONEWEB-0623",
    "noradId": "55164",
    "line1": "1 55164U 23004AA  26204.39158275  .00000015  00000+0  57506-5 0  9997",
    "line2": "2 55164  87.9151 358.6762 0001320  72.0657 288.0618 13.17648550172355"
  },
  {
    "name": "ONEWEB-0624",
    "noradId": "55165",
    "line1": "1 55165U 23004AB  26204.31794792  .00000097  00000+0  23254-3 0  9991",
    "line2": "2 55165  87.8978 343.3963 0001721  94.7768 265.3557 13.12928068172816"
  },
  {
    "name": "ONEWEB-0625",
    "noradId": "55166",
    "line1": "1 55166U 23004AC  26204.38145473  .00000059  00000+0  11929-3 0  9999",
    "line2": "2 55166  87.9156 358.6750 0001754  99.2931 260.8399 13.17648172172349"
  },
  {
    "name": "ONEWEB-0626",
    "noradId": "55167",
    "line1": "1 55167U 23004AD  26204.37134087  .00000047  00000+0  87735-4 0  9994",
    "line2": "2 55167  87.9153 358.6766 0002158  95.7078 264.4300 13.17648841172341"
  },
  {
    "name": "ONEWEB-0627",
    "noradId": "55168",
    "line1": "1 55168U 23004AE  26204.35952521  .00000039  00000+0  66655-4 0  9993",
    "line2": "2 55168  87.9158 358.6792 0001472  82.2049 277.9250 13.17648784172342"
  },
  {
    "name": "ONEWEB-0628",
    "noradId": "55169",
    "line1": "1 55169U 23004AF  26204.31271712  .00000326  00000+0  86976-3 0  9992",
    "line2": "2 55169  87.8977 343.4721 0001256  88.1557 271.9715 13.12438772172770"
  },
  {
    "name": "ONEWEB-0629",
    "noradId": "55170",
    "line1": "1 55170U 23004AG  26204.41098369  .00000022  00000+0  23372-4 0  9995",
    "line2": "2 55170  87.9155 358.6647 0001504  97.4471 262.6831 13.17649849172354"
  },
  {
    "name": "ONEWEB-0631",
    "noradId": "55171",
    "line1": "1 55171U 23004AH  26204.37045123  .00000077  00000+0  16362-3 0  9991",
    "line2": "2 55171  87.9204 328.2425 0002184  87.6459 272.4924 13.18687079174441"
  },
  {
    "name": "ONEWEB-0709",
    "noradId": "55172",
    "line1": "1 55172U 23004AJ  26204.44531387  .00000225  00000+0  60016-3 0  9992",
    "line2": "2 55172  87.8890  13.8583 0002713  93.0750 267.0689 13.11419395170628"
  },
  {
    "name": "ONEWEB-0710",
    "noradId": "55173",
    "line1": "1 55173U 23004AK  26204.42533519  .00000042  00000+0  74713-4 0  9997",
    "line2": "2 55173  87.9142 358.6582 0001896  85.0587 275.0761 13.17649227172356"
  },
  {
    "name": "ONEWEB-0711",
    "noradId": "55174",
    "line1": "1 55174U 23004AL  26204.41648071 -.00000424  00000+0 -12322-2 0  9999",
    "line2": "2 55174  87.8891  13.8523 0001567  68.6056 291.5239 13.11416175170589"
  },
  {
    "name": "ONEWEB-0713",
    "noradId": "55175",
    "line1": "1 55175U 23004AM  26204.43513829 -.00000221  00000+0 -66075-3 0  9994",
    "line2": "2 55175  87.8896  13.8509 0001647  80.1922 279.9391 13.11418625170579"
  },
  {
    "name": "ONEWEB-0715",
    "noradId": "55176",
    "line1": "1 55176U 23004AN  26204.43005159 -.00000380  00000+0 -11082-2 0  9990",
    "line2": "2 55176  87.8894  13.8523 0002463  85.8149 274.3261 13.11417873170618"
  },
  {
    "name": "ONEWEB-0716",
    "noradId": "55177",
    "line1": "1 55177U 23004AP  26204.34264864 -.00000009  00000+0 -55556-4 0  9995",
    "line2": "2 55177  87.9151 358.6765 0001910 100.7907 259.3440 13.17648829172346"
  },
  {
    "name": "ONEWEB-0717",
    "noradId": "55178",
    "line1": "1 55178U 23004AQ  26204.40170608  .00000064  00000+0  13135-3 0  9990",
    "line2": "2 55178  87.9166 358.6559 0001825  76.4675 283.6660 13.17647711172400"
  },
  {
    "name": "ONEWEB-0719",
    "noradId": "55179",
    "line1": "1 55179U 23004AR  26204.33588995  .00000083  00000+0  17961-3 0  9997",
    "line2": "2 55179  87.9165 358.6490 0001713  99.6111 260.5215 13.17647825172341"
  },
  {
    "name": "ONEWEB-0530",
    "noradId": "55796",
    "line1": "1 55796U 23029A   26204.45318330  .00000128  00000+0  28268-3 0  9998",
    "line2": "2 55796  87.9165 267.2387 0001699  88.7432 271.3896 13.20770167165936"
  },
  {
    "name": "ONEWEB-0534",
    "noradId": "55797",
    "line1": "1 55797U 23029B   26204.44139404  .00000096  00000+0  20421-3 0  9998",
    "line2": "2 55797  87.9165 267.2423 0002107 100.0361 260.1010 13.20769919165939"
  },
  {
    "name": "ONEWEB-0556",
    "noradId": "55798",
    "line1": "1 55798U 23029C   26204.22086720  .00000046  00000+0  81235-4 0  9993",
    "line2": "2 55798  87.9161 267.2845 0001520 120.5534 239.5750 13.20771386165900"
  },
  {
    "name": "ONEWEB-0562",
    "noradId": "55799",
    "line1": "1 55799U 23029D   26204.43466007  .00000128  00000+0  28229-3 0  9991",
    "line2": "2 55799  87.9169 267.2232 0001228  94.8091 265.3183 13.20772958165931"
  },
  {
    "name": "ONEWEB-0563",
    "noradId": "55800",
    "line1": "1 55800U 23029E   26204.42961983  .00000120  00000+0  26227-3 0  9994",
    "line2": "2 55800  87.9170 267.2548 0002299 102.8834 257.2556 13.20770283165922"
  },
  {
    "name": "ONEWEB-0564",
    "noradId": "55801",
    "line1": "1 55801U 23029F   26204.19561064 -.00000013  00000+0 -63539-4 0  9996",
    "line2": "2 55801  87.9165 267.2750 0001722  94.1990 265.9340 13.20773048165905"
  },
  {
    "name": "ONEWEB-0638",
    "noradId": "55802",
    "line1": "1 55802U 23029G   26204.24453469 -.00000191  00000+0 -54844-3 0  9997",
    "line2": "2 55802  87.8950 282.5644 0001586 108.9900 251.1402 13.14505218164137"
  },
  {
    "name": "ONEWEB-0639",
    "noradId": "55803",
    "line1": "1 55803U 23029H   26204.27233284  .00000046  00000+0  82211-4 0  9999",
    "line2": "2 55803  87.9182 297.7907 0002853 113.1007 247.0427 13.19724369163663"
  },
  {
    "name": "ONEWEB-0640",
    "noradId": "55804",
    "line1": "1 55804U 23029J   26204.48241665 -.00000146  00000+0 -42944-3 0  9996",
    "line2": "2 55804  87.8948 282.5077 0001849 118.7580 241.3735 13.14503298164182"
  },
  {
    "name": "ONEWEB-0641",
    "noradId": "55805",
    "line1": "1 55805U 23029K   26204.26760337  .00000052  00000+0  96452-4 0  9993",
    "line2": "2 55805  87.9191 297.7838 0002046 104.2861 255.8499 13.19727899163679"
  },
  {
    "name": "ONEWEB-0642",
    "noradId": "55806",
    "line1": "1 55806U 23029L   26204.26286242  .00000044  00000+0  76525-4 0  9992",
    "line2": "2 55806  87.9183 297.7940 0002826 106.9704 253.1739 13.19727173163668"
  },
  {
    "name": "ONEWEB-0643",
    "noradId": "55807",
    "line1": "1 55807U 23029M   26204.60452988  .00000089  00000+0  20463-3 0  9991",
    "line2": "2 55807  87.8958 282.4714 0002766  99.7868 260.3574 13.14502420164176"
  },
  {
    "name": "ONEWEB-0644",
    "noradId": "55808",
    "line1": "1 55808U 23029N   26204.48557857  .00000014  00000+0  33958-5 0  9992",
    "line2": "2 55808  87.9183 297.7506 0002354 102.4982 257.6415 13.19726684163692"
  },
  {
    "name": "ONEWEB-0645",
    "noradId": "55809",
    "line1": "1 55809U 23029P   26204.50768983  .00000050  00000+0  92599-4 0  9995",
    "line2": "2 55809  87.9182 297.7428 0002209 112.0306 248.1062 13.19726819163694"
  },
  {
    "name": "ONEWEB-0646",
    "noradId": "55810",
    "line1": "1 55810U 23029Q   26204.52505904  .00000107  00000+0  23519-3 0  9999",
    "line2": "2 55810  87.9184 297.7401 0002320 101.9827 258.1566 13.19724573163682"
  },
  {
    "name": "ONEWEB-0648",
    "noradId": "55811",
    "line1": "1 55811U 23029R   26204.49668420  .00000027  00000+0  39020-4 0  9995",
    "line2": "2 55811  87.8960 282.4696 0002626 117.1014 243.0384 13.14504299164168"
  },
  {
    "name": "ONEWEB-0649",
    "noradId": "55812",
    "line1": "1 55812U 23029S   26204.24706125 -.00000021  00000+0 -85626-4 0  9993",
    "line2": "2 55812  87.9182 297.7933 0002166 106.5840 253.5531 13.19724012163685"
  },
  {
    "name": "ONEWEB-0650",
    "noradId": "55813",
    "line1": "1 55813U 23029T   26204.31814465  .00000005  00000+0 -19073-4 0  9993",
    "line2": "2 55813  87.9184 297.7816 0002597 105.7895 254.3524 13.19724631163663"
  },
  {
    "name": "ONEWEB-0652",
    "noradId": "55814",
    "line1": "1 55814U 23029U   26204.24930489 -.00000118  00000+0 -35204-3 0  9990",
    "line2": "2 55814  87.8955 282.5248 0001978  95.1344 265.0012 13.14502876164104"
  },
  {
    "name": "ONEWEB-0653",
    "noradId": "55815",
    "line1": "1 55815U 23029V   26204.46180141 -.00000063  00000+0 -20333-3 0  9993",
    "line2": "2 55815  87.8967 282.4817 0001931  99.5832 260.5517 13.14502247164166"
  }
]